{
  "type": "FeatureCollection",
  "features": [
    {
      "type": "Feature",
      "properties": {
        "norad_id": 67124,
        "name": "STARLINK-36195",
        "group": "last-30-days",
        "lat": 34.633702767886824,
        "lon": 2.5378226196327547,
        "alt_km": 331.8381552617757,
        "timestamp": "2025-12-26T19:22:37.609499+00:00",
        "meta_object_name": "STARLINK-36195",
        "meta_object_id": "2025-299Y",
        "meta_epoch": "2025-12-26T14:00:04.000032",
        "meta_mean_motion": 15.78769022,
        "meta_eccentricity": 0.00018278,
        "meta_inclination": 42.9979,
        "meta_ra_of_asc_node": 231.7466,
        "meta_arg_of_pericenter": 256.16,
        "meta_mean_anomaly": 33.0025,
        "meta_ephemeris_type": 0,
        "meta_classification_type": "U",
        "meta_norad_cat_id": 67124,
        "meta_element_set_no": 999,
        "meta_rev_at_epoch": 303,
        "meta_bstar": -0.011004571,
        "meta_mean_motion_dot": -0.01758974,
        "meta_mean_motion_ddot": 0,
        "tle_line1": "1 67124U 25299Y   25360.58337963 -.01758974  00000+0 -11005-1 0  9997",
        "tle_line2": "2 67124  42.9979 231.7466 0001827 256.1600  33.0025 15.78769022  3035"
      },
      "geometry": {
        "type": "Point",
        "coordinates": [
          2.5378226196327547,
          34.633702767886824
        ]
      }
    },
    {
      "type": "Feature",
      "properties": {
        "norad_id": 67125,
        "name": "STARLINK-36219",
        "group": "last-30-days",
        "lat": 33.871067415396,
        "lon": 4.287932878810632,
        "alt_km": 331.8970391933499,
        "timestamp": "2025-12-26T19:22:37.609510+00:00",
        "meta_object_name": "STARLINK-36219",
        "meta_object_id": "2025-299Z",
        "meta_epoch": "2025-12-26T14:00:04.000032",
        "meta_mean_motion": 15.787833,
        "meta_eccentricity": 0.00017764,
        "meta_inclination": 42.9975,
        "meta_ra_of_asc_node": 231.742,
        "meta_arg_of_pericenter": 257.2326,
        "meta_mean_anomaly": 33.556,
        "meta_ephemeris_type": 0,
        "meta_classification_type": "U",
        "meta_norad_cat_id": 67125,
        "meta_element_set_no": 999,
        "meta_rev_at_epoch": 303,
        "meta_bstar": -0.011038643,
        "meta_mean_motion_dot": -0.01764736,
        "meta_mean_motion_ddot": 0,
        "tle_line1": "1 67125U 25299Z   25360.58337963 -.01764736  00000+0 -11039-1 0  9998",
        "tle_line2": "2 67125  42.9975 231.7420 0001776 257.2326  33.5560 15.78783300  3036"
      },
      "geometry": {
        "type": "Point",
        "coordinates": [
          4.287932878810632,
          33.871067415396
        ]
      }
    },
    {
      "type": "Feature",
      "properties": {
        "norad_id": 67126,
        "name": "STARLINK-36223",
        "group": "last-30-days",
        "lat": 32.97273079629289,
        "lon": 6.244500978944464,
        "alt_km": 332.0074462243583,
        "timestamp": "2025-12-26T19:22:37.609520+00:00",
        "meta_object_name": "STARLINK-36223",
        "meta_object_id": "2025-299AA",
        "meta_epoch": "2025-12-26T14:00:04.000032",
        "meta_mean_motion": 15.78783939,
        "meta_eccentricity": 0.00018005,
        "meta_inclination": 42.9976,
        "meta_ra_of_asc_node": 231.7372,
        "meta_arg_of_pericenter": 256.8925,
        "meta_mean_anomaly": 35.7608,
        "meta_ephemeris_type": 0,
        "meta_classification_type": "U",
        "meta_norad_cat_id": 67126,
        "meta_element_set_no": 999,
        "meta_rev_at_epoch": 303,
        "meta_bstar": -0.011018734,
        "meta_mean_motion_dot": -0.01762002,
        "meta_mean_motion_ddot": 0,
        "tle_line1": "1 67126U 25299AA  25360.58337963 -.01762002  00000+0 -11019-1 0  9991",
        "tle_line2": "2 67126  42.9976 231.7372 0001800 256.8925  35.7608 15.78783939  3037"
      },
      "geometry": {
        "type": "Point",
        "coordinates": [
          6.244500978944464,
          32.97273079629289
        ]
      }
    },
    {
      "type": "Feature",
      "properties": {
        "norad_id": 67127,
        "name": "STARLINK-36164",
        "group": "last-30-days",
        "lat": 32.10971839492743,
        "lon": 8.029191598040821,
        "alt_km": 332.0969859645702,
        "timestamp": "2025-12-26T19:22:37.609531+00:00",
        "meta_object_name": "STARLINK-36164",
        "meta_object_id": "2025-299AB",
        "meta_epoch": "2025-12-26T14:00:04.000032",
        "meta_mean_motion": 15.78791745,
        "meta_eccentricity": 0.0001801,
        "meta_inclination": 42.9976,
        "meta_ra_of_asc_node": 231.7329,
        "meta_arg_of_pericenter": 256.9699,
        "meta_mean_anomaly": 37.4133,
        "meta_ephemeris_type": 0,
        "meta_classification_type": "U",
        "meta_norad_cat_id": 67127,
        "meta_element_set_no": 999,
        "meta_rev_at_epoch": 303,
        "meta_bstar": -0.011023013,
        "meta_mean_motion_dot": -0.01763159,
        "meta_mean_motion_ddot": 0,
        "tle_line1": "1 67127U 25299AB  25360.58337963 -.01763159  00000+0 -11023-1 0  9991",
        "tle_line2": "2 67127  42.9976 231.7329 0001801 256.9699  37.4133 15.78791745  3036"
      },
      "geometry": {
        "type": "Point",
        "coordinates": [
          8.029191598040821,
          32.10971839492743
        ]
      }
    },
    {
      "type": "Feature",
      "properties": {
        "norad_id": 67128,
        "name": "STARLINK-35685",
        "group": "last-30-days",
        "lat": 29.741405761800557,
        "lon": 12.533983295891625,
        "alt_km": 332.53239649701663,
        "timestamp": "2025-12-26T19:22:37.609544+00:00",
        "meta_object_name": "STARLINK-35685",
        "meta_object_id": "2025-299AC",
        "meta_epoch": "2025-12-26T14:00:04.000032",
        "meta_mean_motion": 15.78771044,
        "meta_eccentricity": 0.00016602,
        "meta_inclination": 42.9975,
        "meta_ra_of_asc_node": 231.7211,
        "meta_arg_of_pericenter": 263.4122,
        "meta_mean_anomaly": 35.523,
        "meta_ephemeris_type": 0,
        "meta_classification_type": "U",
        "meta_norad_cat_id": 67128,
        "meta_element_set_no": 999,
        "meta_rev_at_epoch": 303,
        "meta_bstar": -0.011095707,
        "meta_mean_motion_dot": -0.01771779,
        "meta_mean_motion_ddot": 0,
        "tle_line1": "1 67128U 25299AC  25360.58337963 -.01771779  00000+0 -11096-1 0  9999",
        "tle_line2": "2 67128  42.9975 231.7211 0001660 263.4122  35.5230 15.78771044  3030"
      },
      "geometry": {
        "type": "Point",
        "coordinates": [
          12.533983295891625,
          29.741405761800557
        ]
      }
    },
    {
      "type": "Feature",
      "properties": {
        "norad_id": 67129,
        "name": "STARLINK-36214",
        "group": "last-30-days",
        "lat": 31.110699825429307,
        "lon": 9.993936162070517,
        "alt_km": 332.2418847131303,
        "timestamp": "2025-12-26T19:22:37.609554+00:00",
        "meta_object_name": "STARLINK-36214",
        "meta_object_id": "2025-299AD",
        "meta_epoch": "2025-12-26T14:00:04.000032",
        "meta_mean_motion": 15.78791076,
        "meta_eccentricity": 0.0001804,
        "meta_inclination": 42.9977,
        "meta_ra_of_asc_node": 231.7279,
        "meta_arg_of_pericenter": 257.6124,
        "meta_mean_anomaly": 38.7223,
        "meta_ephemeris_type": 0,
        "meta_classification_type": "U",
        "meta_norad_cat_id": 67129,
        "meta_element_set_no": 999,
        "meta_rev_at_epoch": 303,
        "meta_bstar": -0.011038476,
        "meta_mean_motion_dot": -0.01765289,
        "meta_mean_motion_ddot": 0,
        "tle_line1": "1 67129U 25299AD  25360.58337963 -.01765289  00000+0 -11038-1 0  9995",
        "tle_line2": "2 67129  42.9977 231.7279 0001804 257.6124  38.7223 15.78791076  3038"
      },
      "geometry": {
        "type": "Point",
        "coordinates": [
          9.993936162070517,
          31.110699825429307
        ]
      }
    },
    {
      "type": "Feature",
      "properties": {
        "norad_id": 67130,
        "name": "STARLINK-36194",
        "group": "last-30-days",
        "lat": 27.40273713253175,
        "lon": 16.540337192144662,
        "alt_km": 332.88442899259917,
        "timestamp": "2025-12-26T19:22:37.609565+00:00",
        "meta_object_name": "STARLINK-36194",
        "meta_object_id": "2025-299AE",
        "meta_epoch": "2025-12-26T14:00:04.000032",
        "meta_mean_motion": 15.78674599,
        "meta_eccentricity": 0.0001498,
        "meta_inclination": 42.9976,
        "meta_ra_of_asc_node": 231.7121,
        "meta_arg_of_pericenter": 254.9519,
        "meta_mean_anomaly": 48.2876,
        "meta_ephemeris_type": 0,
        "meta_classification_type": "U",
        "meta_norad_cat_id": 67130,
        "meta_element_set_no": 999,
        "meta_rev_at_epoch": 303,
        "meta_bstar": -0.011112375,
        "meta_mean_motion_dot": -0.01767109,
        "meta_mean_motion_ddot": 0,
        "tle_line1": "1 67130U 25299AE  25360.58337963 -.01767109  00000+0 -11112-1 0  9993",
        "tle_line2": "2 67130  42.9976 231.7121 0001498 254.9519  48.2876 15.78674599  3032"
      },
      "geometry": {
        "type": "Point",
        "coordinates": [
          16.540337192144662,
          27.40273713253175
        ]
      }
    }
  ]
}